From:	Horizons Ephemeris System <horizons@ssd.jpl.nasa.gov>
Sent:	Friday, December 4, 2020 12:38 PM
Subject:	[Horizons] MAJOR BODY #C(usr={-90.,-25.,.600^G}@301)_T(301) (1/1)

 Automated mail xmit by MAIL_REQUEST, PID= 23623 Fri Dec  4 10:37:52 2020
++++++++++++++++++++++++++++++++ (part 1 of 1)  +++++++++++++++++++++++++++++++
*******************************************************************************
 Revised: July 31, 2013             Moon / (Earth)                          301
 
 GEOPHYSICAL DATA (updated 2018-Aug-15):
  Vol. mean radius, km  = 1737.53+-0.03    Mass, x10^22 kg       =    7.349
  Radius (gravity), km  = 1738.0           Surface emissivity    =    0.92
  Radius (IAU), km      = 1737.4           GM, km^3/s^2          = 4902.800066
  Density, g/cm^3       =    3.3437        GM 1-sigma, km^3/s^2  =  +-0.0001  
  V(1,0)                =   +0.21          Surface accel., m/s^2 =    1.62
  Earth/Moon mass ratio = 81.3005690769    Farside crust. thick. = ~80 - 90 km
  Mean crustal density  = 2.97+-.07 g/cm^3 Nearside crust. thick.= 58+-8 km 
  Heat flow, Apollo 15  = 3.1+-.6 mW/m^2   Mean angular diameter = 31'05.2"
  Heat flow, Apollo 17  = 2.2+-.5 mW/m^2   Sid. rot. rate, rad/s = 0.0000026617
  Geometric Albedo      = 0.12             Mean solar day        = 29.5306 d
  Obliquity to orbit    = 6.67 deg         Orbit period          = 27.321582 d
  Semi-major axis, a    = 384400 km        Eccentricity          = 0.05490
  Mean motion, rad/s    = 2.6616995x10^-6  Inclination           = 5.145 deg
  Apsidal period        = 3231.50 d        Nodal period          = 6798.38 d
                                 Perihelion  Aphelion    Mean
  Solar Constant (W/m^2)         1414+-7     1323+-7     1368+-7
  Maximum Planetary IR (W/m^2)   1314        1226        1268
  Minimum Planetary IR (W/m^2)      5.2         5.2         5.2
********************************************************************************
 
 
*******************************************************************************
Ephemeris / MAIL_REQUEST Fri Dec  4 10:37:51 2020 Pasadena, USA  / Horizons
*******************************************************************************
Target body name: Moon (301)                      {source: DE431mx}
Center body name: Moon (301)                      {source: DE431mx}
Center-site name: (user defined site below)
*******************************************************************************
Start time      : A.D. 2020-Jan-01 00:00:00.0000 TDB
Stop  time      : A.D. 2039-Jan-01 00:00:00.0000 TDB
Step-size       : 10000 steps
*******************************************************************************
Center geodetic : 270.000000,-25.000000,0.6000000 {E-lon(deg),Lat(deg),Alt(km)}
Center cylindric: 270.000000,1575.16293,-734.5105 {E-lon(deg),Dxy(km),Dz(km)}
Center pole/equ : IAU_MOON                        {East-longitude positive}
Center radii    : 1737.4 x 1737.4 x 1737.4 km     {Equator, meridian, pole}    
Output units    : KM-S
Output type     : GEOMETRIC cartesian states
Output format   : 3 (position, velocity, LT, range, range-rate)
Reference frame : Ecliptic of J2000.0
*******************************************************************************
JDTDB
   X     Y     Z
   VX    VY    VZ
   LT    RG    RR
*******************************************************************************
$$SOE
2459998.764000000 = A.D. 2023-Feb-23 06:20:09.6000 TDB 
   2.117484761444746E+02 -1.542929007798995E+03  7.714769340316691E+02
   4.149867889286092E-03  5.968624505400084E-04  5.468496203312590E-05
   5.797343974543885E-03  1.738000000000000E+03 -4.112232865951924E-19
2459999.458000001 = A.D. 2023-Feb-23 22:59:31.2000 TDB 
   4.566851914534196E+02 -1.487479749448313E+03  7.742652199914037E+02
   4.002566701711147E-03  1.248706915114343E-03  3.811782834950179E-05
   5.797343974543883E-03  1.738000000000000E+03  1.117888546084018E-19
2460000.152000000 = A.D. 2023-Feb-24 15:38:52.8000 TDB 
   6.897135822021851E+02 -1.393814511078850E+03  7.760285324856673E+02
   3.753511822516731E-03  1.868836321764905E-03  2.057024773270721E-05
   5.797343974543885E-03  1.738000000000001E+03 -4.172119752349281E-19
2460000.846000000 = A.D. 2023-Feb-25 08:18:14.4000 TDB 
   9.049093542017779E+02 -1.264312810901211E+03  7.767214280996769E+02
   3.409027686746112E-03  2.441480945295674E-03  2.490718253836139E-06
   5.797343974543884E-03  1.738000000000000E+03 -1.475962221001555E-19
2460001.540000001 = A.D. 2023-Feb-26 00:57:36.0000 TDB 
   1.096801191422968E+03 -1.102265543010999E+03  7.763258460104403E+02
   2.977866792307264E-03  2.952076554233860E-03 -1.565783195464415E-05
   5.797343974543884E-03  1.738000000000000E+03 -9.272486243857615E-19
2460002.234000001 = A.D. 2023-Feb-26 17:36:57.6000 TDB 
   1.260509983195230E+03 -9.117913916242903E+02  7.748516247805142E+02
   2.470987543977920E-03  3.387635491517468E-03 -3.340973623951952E-05
   5.797343974543885E-03  1.738000000000000E+03  1.796606591920744E-19
2460002.928000000 = A.D. 2023-Feb-27 10:16:19.2000 TDB 
   1.391873009072782E+03 -6.977321502061620E+02  7.723363083420118E+02
   1.901275743230516E-03  3.737077703413610E-03 -5.030856104703413E-05
   5.797343974543884E-03  1.738000000000000E+03 -6.467783730914677E-19
2460003.622000000 = A.D. 2023-Feb-28 02:55:40.8000 TDB 
   1.487549908191611E+03 -4.655296078761247E+02  7.688442331381775E+02
   1.283216821291037E-03  3.991513207551349E-03 -6.591905638778854E-05
   5.797343974543885E-03  1.738000000000000E+03 -1.916380364715460E-19
2460004.316000001 = A.D. 2023-Feb-28 19:35:02.4000 TDB 
   1.545107724822261E+03 -2.210871392269013E+02  7.644649079997337E+02
   6.325271908009930E-04  4.144468744099872E-03 -7.983873396895055E-05
   5.797343974543884E-03  1.738000000000000E+03  1.397360682605023E-19
2460005.010000000 = A.D. 2023-Mar-01 12:14:24.0000 TDB 
   1.563082856885747E+03  2.938047374657884E+01  7.593107205040101E+02
  -3.424585370239310E-05  4.192052798486426E-03 -9.170868850943265E-05
   5.797343974543883E-03  1.738000000000000E+03 -1.517134455399739E-19
2460005.704000000 = A.D. 2023-Mar-02 04:53:45.6000 TDB 
   1.541018325054549E+03  2.795051575031463E+02  7.535140269266489E+02
  -7.001454510574449E-04  4.133054777023252E-03 -1.012232731074755E-04
   5.797343974543883E-03  1.738000000000000E+03 -6.387934549051534E-20
2460006.398000001 = A.D. 2023-Mar-02 21:33:07.2000 TDB 
   1.479475411276365E+03  5.229275680295181E+02  7.472237054747168E+02
  -1.348236932532185E-03  3.968975813575850E-03 -1.081382709262749E-04
   5.797343974543884E-03  1.738000000000000E+03 -3.912609911294064E-19
2460007.092000001 = A.D. 2023-Mar-03 14:12:28.8000 TDB 
   1.380019370595473E+03  7.534588857848798E+02  7.406012720844353E+02
  -1.962038994677357E-03  3.703990439732916E-03 -1.122772729333225E-04
   5.797343974543884E-03  1.738000000000000E+03  3.992459093157208E-19
2460007.786000000 = A.D. 2023-Mar-04 06:51:50.4000 TDB 
   1.245179582228856E+03  9.652382601419074E+02  7.338166727177816E+02
  -2.525943279213184E-03  3.344840118043152E-03 -1.135360669031933E-04
   5.797343974543884E-03  1.738000000000000E+03  3.273816456388911E-19
2460008.480000000 = A.D. 2023-Mar-04 23:31:12.0000 TDB 
   1.078385158172729E+03  1.152881891235807E+03  7.270438745311914E+02
  -3.025611654630649E-03  2.900661374778435E-03 -1.118849517761845E-04
   5.797343974543884E-03  1.738000000000000E+03  3.193967274525767E-20
2460009.174000001 = A.D. 2023-Mar-05 16:10:33.6000 TDB 
   8.838776537257125E+02  1.311619951595235E+03  7.204563802352249E+02
  -3.448341065322242E-03  2.382752934398357E-03 -1.073689962890942E-04
   5.797343974543883E-03  1.738000000000000E+03  7.186426367682974E-20
2460009.868000000 = A.D. 2023-Mar-06 08:49:55.2000 TDB 
   6.666031083826543E+02  1.437417861180606E+03  7.142227861483818E+02
  -3.783386641995100E-03  1.804287812938878E-03 -1.001063458743167E-04
   5.797343974543884E-03  1.738000000000000E+03 -3.992459093157208E-20
2460010.562000000 = A.D. 2023-Mar-07 01:29:16.8000 TDB 
   4.320861727609282E+02  1.527078829634970E+03  7.085024963890426E+02
  -4.022234833396078E-03  1.179977733915289E-03 -9.028473734517064E-05
   5.797343974543883E-03  1.738000000000000E+03  9.581901823577299E-20
2460011.256000001 = A.D. 2023-Mar-07 18:08:38.4000 TDB 
   1.862895338869598E+02  1.578325058726768E+03  7.034416952095785E+02
  -4.158819599961854E-03  5.256984512259273E-04 -7.815640511685344E-05
   5.797343974543883E-03  1.738000000000000E+03 -7.186426367682975E-20
2460011.950000001 = A.D. 2023-Mar-08 10:48:00.0000 TDB 
  -6.453777457173298E+01  1.589855543896507E+03  6.991696683887751E+02
  -4.189676173641742E-03 -1.419144346373941E-04 -6.403156169377486E-05
   5.797343974543884E-03  1.738000000000000E+03  7.186426367682974E-20
2460012.644000000 = A.D. 2023-Mar-09 03:27:21.6000 TDB 
  -3.140193086377151E+02  1.561379012527739E+03  6.957955540534836E+02
  -4.114028497189292E-03 -8.058888273788259E-04 -4.827062016663739E-05
   5.797343974543885E-03  1.738000000000000E+03  2.395475455894324E-20
2460013.338000000 = A.D. 2023-Mar-09 20:06:43.2000 TDB 
  -5.558133462625202E+02  1.493621172410153E+03  6.934055937505708E+02
  -3.933808166910286E-03 -1.449347830401658E-03 -3.127531033215503E-05
   5.797343974543884E-03  1.738000000000000E+03  2.994344319867906E-19
2460014.032000001 = A.D. 2023-Mar-10 12:46:04.8000 TDB 
  -7.837740871059459E+02  1.388306100156613E+03  6.920609457621340E+02
  -3.653604467461477E-03 -2.055938767032328E-03 -1.347883357455794E-05
   5.797343974543883E-03  1.738000000000000E+03 -1.756682000989172E-19
2460014.726000000 = A.D. 2023-Mar-11 05:25:26.4000 TDB 
  -9.921078199531080E+02  1.248112258805540E+03  6.917961137555087E+02
  -3.280546856313303E-03 -2.610248597151578E-03  4.664788800731040E-06
   5.797343974543884E-03  1.738000000000000E+03  6.837086197031719E-19
